STARLINK-1536
1 16070C 20055AV  21326.11944488 -.00021623  00000-0 -14486-2 0  3267
2 16070  53.0527 298.2032 0001643  61.2275 349.2031 15.06422734    11
